STARLINK-36411          
1 67608U 26018V   26049.58640726  .00130028  00000+0  66845-3 0  9998
2 67608  97.2846 114.4959 0001714  43.9714 316.1690 15.80850263  4300
STARLINK-36312          
1 67609U 26018W   26049.58336806 -.00009774  00000+0 -64734-4 0  9991
2 67609  97.2845 114.4873 0001164  82.7225 240.9167 15.75191148  4332
STARLINK-36387          
1 67610U 26018X   26049.58377703  .00120715  00000+0  62146-3 0  9995
2 67610  97.2842 114.4993 0000870 119.1267 241.0088 15.80844899  4303
STARLINK-36636          
1 67611U 26018Y   26049.58269096  .00295723  00000+0  14859-2 0  9990
2 67611  97.2864 114.4932 0004263 194.9857 165.1286 15.80912817  4309
STARLINK-36407          
1 67612U 26018Z   26049.58336806 -.00658504  00000+0 -46714-2 0  9992
2 67612  97.2842 114.5017 0001550  86.4956 272.9074 15.75637986  4387
STARLINK-36597          
1 67613U 26018AA  26049.58076493  .00020958  00000+0  10989-3 0  9996
2 67613  97.2844 114.5035 0001429 139.0308 221.1068 15.80816246  4306
NEONSAT-1A              
1 67614U 26019A   26049.40001359  .00003587  00000+0  23913-3 0  9998
2 67614  97.4104 173.6710 0012108 236.5722 123.4349 15.07625503  2917
ELECTRON KICK STAGE R/B 
1 67616U 26019C   26049.59253166  .00439560  58636-4  18890-2 0  9999
2 67616  97.4043 175.3949 0165937 191.7559 167.9809 15.67140932  3046
STARLINK-36548          
1 67617U 26020A   26048.97674939  .00251571  00000+0  14997-2 0  9993
2 67617  42.9968 262.0913 0002073 283.0775  76.9863 15.76407503  2979
STARLINK-36601          
1 67618U 26020B   26049.01069280  .00256594  00000+0  11818-2 0  9996
2 67618  42.9964 261.4679 0002352 236.7325 123.3321 15.82078652  2987
STARLINK-36119          
1 67619U 26020C   26049.03791792  .00240127  00000+0  14320-2 0  9995
2 67619  42.9969 261.6876 0001947 258.7078 101.3573 15.76432021  2984
STARLINK-36607          
1 67620U 26020D   26048.94583094  .00639263  00000+0  27681-2 0  9997
2 67620  42.9966 261.8408 0002739 285.0564  75.0004 15.82415698  2972
