CCSDS_OMM_VERS = 2.0
CREATION_DATE  = 
ORIGINATOR     = 

OBJECT_NAME    = STARLINK-36411
OBJECT_ID      = 2026-018V
CENTER_NAME    = EARTH
REF_FRAME      = TEME
TIME_SYSTEM    = UTC
MEAN_ELEMENT_THEORY = SGP/SGP4

EPOCH          = 2026-02-18T14:04:25.587264
MEAN_MOTION    = 15.80850263
ECCENTRICITY   = .00017144
INCLINATION    = 97.2846
RA_OF_ASC_NODE = 114.4959
ARG_OF_PERICENTER = 43.9714
MEAN_ANOMALY   = 316.1690

EPHEMERIS_TYPE = 0
CLASSIFICATION_TYPE = U
NORAD_CAT_ID   = 67608
ELEMENT_SET_NO = 999
REV_AT_EPOCH   = 430
BSTAR          = .66844637E-3
MEAN_MOTION_DOT = .130028E-2
MEAN_MOTION_DDOT = 0

CCSDS_OMM_VERS = 2.0
CREATION_DATE  = 
ORIGINATOR     = 

OBJECT_NAME    = STARLINK-36312
OBJECT_ID      = 2026-018W
CENTER_NAME    = EARTH
REF_FRAME      = TEME
TIME_SYSTEM    = UTC
MEAN_ELEMENT_THEORY = SGP/SGP4

EPOCH          = 2026-02-18T14:00:03.000384
MEAN_MOTION    = 15.75191148
ECCENTRICITY   = .0001164
INCLINATION    = 97.2845
RA_OF_ASC_NODE = 114.4873
ARG_OF_PERICENTER = 82.7225
MEAN_ANOMALY   = 240.9167

EPHEMERIS_TYPE = 0
CLASSIFICATION_TYPE = U
NORAD_CAT_ID   = 67609
ELEMENT_SET_NO = 999
REV_AT_EPOCH   = 433
BSTAR          = -.6473424E-4
MEAN_MOTION_DOT = -.9774E-4
MEAN_MOTION_DDOT = 0

CCSDS_OMM_VERS = 2.0
CREATION_DATE  = 
ORIGINATOR     = 

OBJECT_NAME    = STARLINK-36387
OBJECT_ID      = 2026-018X
CENTER_NAME    = EARTH
REF_FRAME      = TEME
TIME_SYSTEM    = UTC
MEAN_ELEMENT_THEORY = SGP/SGP4

EPOCH          = 2026-02-18T14:00:38.335392
MEAN_MOTION    = 15.80844899
ECCENTRICITY   = .00008705
INCLINATION    = 97.2842
RA_OF_ASC_NODE = 114.4993
ARG_OF_PERICENTER = 119.1267
MEAN_ANOMALY   = 241.0088

EPHEMERIS_TYPE = 0
CLASSIFICATION_TYPE = U
NORAD_CAT_ID   = 67610
ELEMENT_SET_NO = 999
REV_AT_EPOCH   = 430
BSTAR          = .62146009E-3
MEAN_MOTION_DOT = .120715E-2
MEAN_MOTION_DDOT = 0

CCSDS_OMM_VERS = 2.0
CREATION_DATE  = 
ORIGINATOR     = 

OBJECT_NAME    = STARLINK-36636
OBJECT_ID      = 2026-018Y
CENTER_NAME    = EARTH
REF_FRAME      = TEME
TIME_SYSTEM    = UTC
MEAN_ELEMENT_THEORY = SGP/SGP4

EPOCH          = 2026-02-18T13:59:04.498944
MEAN_MOTION    = 15.80912817
ECCENTRICITY   = .00042631
INCLINATION    = 97.2864
RA_OF_ASC_NODE = 114.4932
ARG_OF_PERICENTER = 194.9857
MEAN_ANOMALY   = 165.1286

EPHEMERIS_TYPE = 0
CLASSIFICATION_TYPE = U
NORAD_CAT_ID   = 67611
ELEMENT_SET_NO = 999
REV_AT_EPOCH   = 430
BSTAR          = .14858963E-2
MEAN_MOTION_DOT = .295723E-2
MEAN_MOTION_DDOT = 0

CCSDS_OMM_VERS = 2.0
CREATION_DATE  = 
ORIGINATOR     = 

OBJECT_NAME    = STARLINK-36407
OBJECT_ID      = 2026-018Z
CENTER_NAME    = EARTH
REF_FRAME      = TEME
TIME_SYSTEM    = UTC
MEAN_ELEMENT_THEORY = SGP/SGP4

EPOCH          = 2026-02-18T14:00:03.000384
MEAN_MOTION    = 15.75637986
ECCENTRICITY   = .00015504
INCLINATION    = 97.2842
RA_OF_ASC_NODE = 114.5017
ARG_OF_PERICENTER = 86.4956
MEAN_ANOMALY   = 272.9074

EPHEMERIS_TYPE = 0
CLASSIFICATION_TYPE = U
NORAD_CAT_ID   = 67612
ELEMENT_SET_NO = 999
REV_AT_EPOCH   = 438
BSTAR          = -.46713665E-2
MEAN_MOTION_DOT = -.658504E-2
MEAN_MOTION_DDOT = 0

CCSDS_OMM_VERS = 2.0
CREATION_DATE  = 
ORIGINATOR     = 

OBJECT_NAME    = STARLINK-36597
OBJECT_ID      = 2026-018AA
CENTER_NAME    = EARTH
REF_FRAME      = TEME
TIME_SYSTEM    = UTC
MEAN_ELEMENT_THEORY = SGP/SGP4

EPOCH          = 2026-02-18T13:56:18.089952
MEAN_MOTION    = 15.80816246
ECCENTRICITY   = .00014294
INCLINATION    = 97.2844
RA_OF_ASC_NODE = 114.5035
ARG_OF_PERICENTER = 139.0308
MEAN_ANOMALY   = 221.1068

EPHEMERIS_TYPE = 0
CLASSIFICATION_TYPE = U
NORAD_CAT_ID   = 67613
ELEMENT_SET_NO = 999
REV_AT_EPOCH   = 430
BSTAR          = .10989042E-3
MEAN_MOTION_DOT = .20958E-3
MEAN_MOTION_DDOT = 0

CCSDS_OMM_VERS = 2.0
CREATION_DATE  = 
ORIGINATOR     = 

OBJECT_NAME    = NEONSAT-1A
OBJECT_ID      = 2026-019A
CENTER_NAME    = EARTH
REF_FRAME      = TEME
TIME_SYSTEM    = UTC
MEAN_ELEMENT_THEORY = SGP/SGP4

EPOCH          = 2026-02-18T09:36:01.174176
MEAN_MOTION    = 15.07625503
ECCENTRICITY   = .00121085
INCLINATION    = 97.4104
RA_OF_ASC_NODE = 173.6710
ARG_OF_PERICENTER = 236.5722
MEAN_ANOMALY   = 123.4349

EPHEMERIS_TYPE = 0
CLASSIFICATION_TYPE = U
NORAD_CAT_ID   = 67614
ELEMENT_SET_NO = 999
REV_AT_EPOCH   = 291
BSTAR          = .23913475E-3
MEAN_MOTION_DOT = .3587E-4
MEAN_MOTION_DDOT = 0

CCSDS_OMM_VERS = 2.0
CREATION_DATE  = 
ORIGINATOR     = 

OBJECT_NAME    = ELECTRON KICK STAGE R/B
OBJECT_ID      = 2026-019C
CENTER_NAME    = EARTH
REF_FRAME      = TEME
TIME_SYSTEM    = UTC
MEAN_ELEMENT_THEORY = SGP/SGP4

EPOCH          = 2026-02-18T14:13:14.735424
MEAN_MOTION    = 15.67140932
ECCENTRICITY   = .01659372
INCLINATION    = 97.4043
RA_OF_ASC_NODE = 175.3949
ARG_OF_PERICENTER = 191.7559
MEAN_ANOMALY   = 167.9809

EPHEMERIS_TYPE = 0
CLASSIFICATION_TYPE = U
NORAD_CAT_ID   = 67616
ELEMENT_SET_NO = 999
REV_AT_EPOCH   = 304
BSTAR          = .18889694E-2
MEAN_MOTION_DOT = .43956E-2
MEAN_MOTION_DDOT = .58635704E-4

CCSDS_OMM_VERS = 2.0
CREATION_DATE  = 
ORIGINATOR     = 

OBJECT_NAME    = STARLINK-36548
OBJECT_ID      = 2026-020A
CENTER_NAME    = EARTH
REF_FRAME      = TEME
TIME_SYSTEM    = UTC
MEAN_ELEMENT_THEORY = SGP/SGP4

EPOCH          = 2026-02-17T23:26:31.147296
MEAN_MOTION    = 15.76407503
ECCENTRICITY   = .0002073
INCLINATION    = 42.9968
RA_OF_ASC_NODE = 262.0913
ARG_OF_PERICENTER = 283.0775
MEAN_ANOMALY   = 76.9863

EPHEMERIS_TYPE = 0
CLASSIFICATION_TYPE = U
NORAD_CAT_ID   = 67617
ELEMENT_SET_NO = 999
REV_AT_EPOCH   = 297
BSTAR          = .14997E-2
MEAN_MOTION_DOT = .251571E-2
MEAN_MOTION_DDOT = 0

CCSDS_OMM_VERS = 2.0
CREATION_DATE  = 
ORIGINATOR     = 

OBJECT_NAME    = STARLINK-36601
OBJECT_ID      = 2026-020B
CENTER_NAME    = EARTH
REF_FRAME      = TEME
TIME_SYSTEM    = UTC
MEAN_ELEMENT_THEORY = SGP/SGP4

EPOCH          = 2026-02-18T00:15:23.857920
MEAN_MOTION    = 15.82078652
ECCENTRICITY   = .00023529
INCLINATION    = 42.9964
RA_OF_ASC_NODE = 261.4679
ARG_OF_PERICENTER = 236.7325
MEAN_ANOMALY   = 123.3321

EPHEMERIS_TYPE = 0
CLASSIFICATION_TYPE = U
NORAD_CAT_ID   = 67618
ELEMENT_SET_NO = 999
REV_AT_EPOCH   = 298
BSTAR          = .11818324E-2
MEAN_MOTION_DOT = .256594E-2
MEAN_MOTION_DDOT = 0

CCSDS_OMM_VERS = 2.0
CREATION_DATE  = 
ORIGINATOR     = 

OBJECT_NAME    = STARLINK-36119
OBJECT_ID      = 2026-020C
CENTER_NAME    = EARTH
REF_FRAME      = TEME
TIME_SYSTEM    = UTC
MEAN_ELEMENT_THEORY = SGP/SGP4

EPOCH          = 2026-02-18T00:54:36.108288
MEAN_MOTION    = 15.76432021
ECCENTRICITY   = .0001947
INCLINATION    = 42.9969
RA_OF_ASC_NODE = 261.6876
ARG_OF_PERICENTER = 258.7078
MEAN_ANOMALY   = 101.3573

EPHEMERIS_TYPE = 0
CLASSIFICATION_TYPE = U
NORAD_CAT_ID   = 67619
ELEMENT_SET_NO = 999
REV_AT_EPOCH   = 298
BSTAR          = .14320102E-2
MEAN_MOTION_DOT = .240127E-2
MEAN_MOTION_DDOT = 0

CCSDS_OMM_VERS = 2.0
CREATION_DATE  = 
ORIGINATOR     = 

OBJECT_NAME    = STARLINK-36607
OBJECT_ID      = 2026-020D
CENTER_NAME    = EARTH
REF_FRAME      = TEME
TIME_SYSTEM    = UTC
MEAN_ELEMENT_THEORY = SGP/SGP4

EPOCH          = 2026-02-17T22:41:59.793216
MEAN_MOTION    = 15.82415698
ECCENTRICITY   = .0002739
INCLINATION    = 42.9966
RA_OF_ASC_NODE = 261.8408
ARG_OF_PERICENTER = 285.0564
MEAN_ANOMALY   = 75.0004

EPHEMERIS_TYPE = 0
CLASSIFICATION_TYPE = U
NORAD_CAT_ID   = 67620
ELEMENT_SET_NO = 999
REV_AT_EPOCH   = 297
BSTAR          = .27681E-2
MEAN_MOTION_DOT = .639263E-2
MEAN_MOTION_DDOT = 0

